[{"OBJECT_NAME":"STARLINK-5948","OBJECT_ID":"2023-042F","EPOCH":"2026-03-09T22:00:01.999584","MEAN_MOTION":15.16709468,"ECCENTRICITY":0.00018493,"INCLINATION":43.0003,"RA_OF_ASC_NODE":54.3638,"ARG_OF_PERICENTER":224.2844,"MEAN_ANOMALY":23.8893,"EPHEMERIS_TYPE":0,"CLASSIFICATION_TYPE":"U","NORAD_CAT_ID":55991,"ELEMENT_SET_NO":999,"REV_AT_EPOCH":573,"BSTAR":0.060578731,"MEAN_MOTION_DOT":0.01311202,"MEAN_MOTION_DDOT":0},{"OBJECT_NAME":"TRANSPORTER-1 OBJECT AA","OBJECT_ID":"2021-006AA","EPOCH":"2026-03-09T22:58:14.761920","MEAN_MOTION":15.29982294,"ECCENTRICITY":0.00086604,"INCLINATION":97.2381,"RA_OF_ASC_NODE":112.457,"ARG_OF_PERICENTER":185.709,"MEAN_ANOMALY":174.4054,"EPHEMERIS_TYPE":0,"CLASSIFICATION_TYPE":"U","NORAD_CAT_ID":47437,"ELEMENT_SET_NO":999,"REV_AT_EPOCH":28414,"BSTAR":0.0002197941,"MEAN_MOTION_DOT":6.312e-5,"MEAN_MOTION_DDOT":0}]
